OBJECT_NAME,OBJECT_ID,EPOCH,MEAN_MOTION,ECCENTRICITY,INCLINATION,RA_OF_ASC_NODE,ARG_OF_PERICENTER,MEAN_ANOMALY,EPHEMERIS_TYPE,CLASSIFICATION_TYPE,NORAD_CAT_ID,ELEMENT_SET_NO,REV_AT_EPOCH,BSTAR,MEAN_MOTION_DOT,MEAN_MOTION_DDOT
NETSAT-1,2020-068W,2026-05-11T05:14:52.186848,15.33735752,.0006688,97.8754,129.5486,126.5796,233.6061,0,U,46506,999,30963,.2571E-3,.8306E-4,0
NETSAT-2,2020-068X,2026-05-10T23:49:08.031648,15.44418560,.0006144,97.8637,136.0527,116.0068,244.1813,0,U,46507,999,30999,.31098E-3,.14295E-3,0
TIANQI-6,2020-076D,2026-05-11T02:32:33.828576,15.06941704,.0010444,34.9994,276.0000,206.1661,153.8521,0,U,46810,999,30298,.16603E-3,.2507E-4,0
KSM1-C,2020-081B,2026-05-11T03:16:41.024352,15.26138081,.0002923,36.8940,287.5693,263.7696,96.2720,0,U,46906,999,30350,.24164E-3,.6293E-4,0
KSM1-D,2020-081C,2026-05-10T21:27:02.895264,15.24206355,.0005012,36.8969,297.3723,296.8483,63.1753,0,U,46907,999,30340,.20625E-3,.505E-4,0
KSM1-A,2020-081H,2026-05-10T20:37:33.925152,15.25393253,.0003081,36.8969,291.3928,350.5562,9.5129,0,U,46912,999,30347,.23426E-3,.596E-4,0
R2,2020-081J,2026-05-11T03:07:37.824096,15.24904996,.0007771,36.8979,289.5231,322.5884,37.4323,0,U,46913,999,30632,.21243E-3,.5319E-4,0
KSM1-B,2020-081K,2026-05-11T03:42:07.924032,15.24008701,.0006423,36.9024,296.2885,319.2260,40.8007,0,U,46914,999,30653,.19735E-3,.48E-4,0
GONETS-M 20,2020-091A,2026-05-11T05:15:22.379328,12.42892384,.0019973,82.5043,325.4238,261.1861,98.6956,0,U,47227,999,24648,-.30265E-3,-.32E-6,0
GONETS-M 21,2020-091B,2026-05-11T04:37:27.655680,12.42884635,.0013808,82.4966,324.1698,276.4903,83.4604,0,U,47228,999,24647,.41469E-3,.67E-6,0
GONETS-M 22,2020-091C,2026-05-11T03:58:56.182656,12.42890471,.002083,82.5025,325.0679,256.3568,103.5192,0,U,47229,999,24642,-.42747E-3,-.5E-6,0
CUBEL,2021-006AM,2026-05-11T01:51:09.444096,15.40413215,.0005119,97.2366,182.0324,316.8299,43.2546,0,U,47448,999,29404,.1407E-3,.5608E-4,0
ARKTIKA-M 1,2021-016A,2026-05-09T02:45:45.668160,2.00634688,.72733431,63.2307,63.2755,269.7576,14.8669,0,U,47719,999,3800,0,-.78E-6,0
STARLINK-2342,2021-021Z,2026-05-10T22:27:43.381728,15.54233866,.0003483,53.1577,330.3502,197.0250,163.0644,0,U,47883,999,28607,.11053E-2,.73563E-3,0
GRUS-1B,2021-022C,2026-05-11T04:39:35.404128,14.98893574,.001725,97.5423,15.6016,83.5458,276.7729,0,U,47934,999,28035,.38714E-4,.412E-5,0
2021-022F,2021-022F,2026-05-11T04:02:11.975424,15.32462939,.0008564,97.3926,31.9077,214.5098,145.5588,0,U,47937,999,28404,.17034E-3,.5265E-4,0
UNISAT-7,2021-022P,2026-05-11T04:27:33.801696,15.39483616,.0008573,97.3919,35.7483,193.9665,166.1344,0,U,47945,999,28416,.22085E-3,.8589E-4,0
2021-022X,2021-022X,2026-05-11T04:23:30.565824,15.68004384,.0006911,97.3932,46.0638,147.9138,212.2545,0,U,47953,999,28469,.57025E-3,.63382E-3,0
2021-022AC,2021-022AC,2026-05-11T06:23:09.647232,15.92164857,.0008577,97.3828,50.4843,140.5211,219.6690,0,U,47958,999,28410,.78841E-3,.261928E-2,.27765E-4
GLOBAL-9,2021-023G,2026-05-10T23:11:56.855328,15.45115960,.0002242,44.9805,99.4807,84.5086,275.6059,0,U,47971,999,28918,.28644E-3,.13527E-3,0
AII-BRAVO,2021-034C,2026-05-11T03:30:50.592960,15.03191491,.0007062,97.5658,186.9049,49.8713,310.3130,0,U,48270,999,27405,.19368E-3,.2561E-4,0
TYVAK-182A,2021-034D,2026-05-11T02:55:18.575328,15.05804986,.0007257,97.5738,190.6881,98.1950,262.0100,0,U,48271,999,27425,.26229E-3,.3744E-4,0
CSS (TIANHE),2021-035A,2026-05-11T04:14:21.970752,15.62137381,.0004323,41.4670,187.1184,286.6334,73.4031,0,U,48274,999,28738,.16684E-3,.14757E-3,0
TYVAK-0130,2021-041BF,2026-05-10T11:36:17.086176,15.27044492,.0011082,52.9928,201.1106,55.6421,304.5622,0,U,48606,999,27462,.17294E-3,.4308E-4,0
HAIYANG-2D,2021-043A,2026-05-11T04:55:34.635072,13.83371985,.0011385,66.0001,36.7722,273.4224,86.5542,0,U,48621,999,25143,-.12903E-3,-.223E-5,0
2021-050D,2021-050D,2026-05-11T05:12:44.245728,15.22954630,.0006452,97.3338,208.1038,48.2312,311.9476,0,U,48843,999,27333,.11562E-3,.2647E-4,0
TYVAK-0173,2021-059P,2026-05-11T04:37:28.719264,14.81762849,.0010213,96.0084,216.7471,145.9086,214.2790,0,U,48892,999,26276,.15025E-3,.1154E-4,0
MANDRAKE 2 ABLE,2021-059AE,2026-05-11T03:40:34.739904,15.53501628,.000627,97.7053,318.1579,122.6264,237.5594,0,U,48907,999,27137,.22127E-3,.13958E-3,0
MANDRAKE 2 BAKER,2021-059AF,2026-05-11T01:26:35.948256,15.57696219,.0004862,97.7029,320.6820,121.1433,239.0299,0,U,48908,999,27151,.26114E-3,.19254E-3,0
PACE-1,2021-059AG,2026-05-11T02:12:38.419776,15.74268428,.0002848,97.6814,325.2238,104.0094,256.1487,0,U,48909,999,27195,.36436E-3,.5243E-3,0
YAM-3,2021-059AN,2026-05-11T00:43:44.780160,15.47730488,.0006468,97.7002,315.5840,123.7229,236.4637,0,U,48915,999,27124,.1536E-3,.7857E-4,0
FARADAY_PHOENIX,2021-059AX,2026-05-11T02:06:16.544736,15.70388347,.000519,97.6868,325.2483,116.2335,243.9460,0,U,48924,999,27182,.5759E-3,.70611E-3,0
DEMO8 (TENZING),2021-059CA,2026-05-11T02:13:48.688896,15.53584421,.0008276,97.7050,321.7291,118.3663,241.8425,0,U,48951,999,27154,.21678E-3,.13721E-3,0
NAPA-2,2021-059CN,2026-05-11T03:38:21.060960,15.84570527,.0002294,97.6795,325.4881,129.8446,230.3025,0,U,48963,999,27192,.52808E-3,.122019E-2,0
FENGYUN 3E,2021-062A,2026-05-11T04:57:22.182336,14.19901588,.0001643,98.7507,135.0271,152.5194,207.6069,0,U,49008,999,25133,.14949E-3,.273E-5,0
ISS (NAUKA),2021-066A,2026-05-11T04:00:07.783200,15.49181925,.000747,51.6310,123.3566,46.3627,313.7980,0,U,49044,999,56616,.10622E-3,.5444E-4,0
STARLINK-3100,2021-082Q,2026-05-11T04:31:49.855008,14.98332057,.0003883,69.9986,136.8641,267.1095,92.9620,0,U,49144,999,25534,.20425E-4,.151E-5,0
CUTE,2021-088D,2026-05-11T04:40:32.005632,15.78091657,.0001335,97.4193,227.3703,277.9495,82.1620,0,U,49263,999,25669,.78838E-3,.135544E-2,0
2021-091B,2021-091B,2026-05-11T05:20:41.230752,15.18361533,.0013631,97.4488,319.3652,162.6535,197.5168,0,U,49316,999,25337,.76484E-4,.1506E-4,0
SDGSAT 1,2021-100A,2026-05-11T03:55:18.467616,15.19734811,.0009733,97.2665,179.4837,67.6704,292.5562,0,U,49387,999,25029,.72242E-4,.148E-4,0
TEIKYOSAT-4 (OORURI),2021-102B,2026-05-11T01:31:29.798976,15.09373351,.0013588,97.3700,161.9887,64.8246,295.4391,0,U,49396,999,24712,.66173E-4,.998E-5,0
Z-SAT,2021-102E,2026-05-11T03:42:48.621024,15.17981670,.0017235,97.3360,167.6038,22.6619,337.5373,0,U,49399,999,24782,.12629E-3,.2509E-4,0
HIBARI,2021-102F,2026-05-11T02:03:48.445632,15.30979498,.0010588,97.3272,177.4282,340.7739,19.3101,0,U,49400,999,24851,.23025E-3,.6826E-4,0
KOSEN-1,2021-102H,2026-05-11T00:58:52.032000,15.26320628,.0012998,97.3222,173.9286,346.2844,13.8039,0,U,49402,999,24835,.17937E-3,.4594E-4,0
GLOBAL-14,2021-106A,2026-05-10T09:10:49.382400,15.48827281,.0013908,42.0036,155.4260,124.0421,236.1745,0,U,49469,999,25226,.25511E-3,.13841E-3,0
GAOFEN-3 02,2021-109A,2026-05-11T03:21:17.517312,14.42211907,.0003963,98.4106,139.7620,95.8943,264.2699,0,U,49495,999,23497,-.20813E-6,-.44E-6,0
GLOBAL-12,2021-115BA,2026-05-10T12:59:54.369600,15.51582463,.0001952,53.1953,225.2442,314.8237,45.2615,0,U,49772,999,25005,.37447E-3,.22179E-3,0
GLOBAL-13,2021-115BB,2026-05-10T23:54:43.896960,15.44738677,.0003065,53.1973,231.1890,22.5578,337.5564,0,U,49773,999,25001,.26126E-3,.11998E-3,0
GLOBAL-17,2021-120A,2026-05-10T19:28:13.469664,15.50414441,.0013385,41.9954,271.6765,345.8094,14.2372,0,U,49949,999,24909,.32607E-3,.18826E-3,0
GLOBAL-16,2021-120B,2026-05-11T02:22:57.935424,15.48526305,.0011571,41.9959,273.0363,337.6489,22.3849,0,U,49950,999,24909,.32292E-3,.17405E-3,0
XW-3 (CAS-9),2021-131B,2026-05-11T04:37:14.110752,14.41321109,.000373,98.4951,223.7863,192.3468,167.7630,0,U,50466,999,22978,.79252E-4,.212E-5,0
ION SCV-004,2022-002K,2026-05-11T03:47:32.540064,15.30075215,.0008956,97.2861,189.5176,120.4758,239.7368,0,U,50993,999,23963,.12011E-3,.3424E-4,0
ETV-A1,2022-002CE,2026-05-11T04:16:09.083424,15.39902023,.0006803,97.2897,197.6085,115.0906,245.1047,0,U,51060,999,24014,.18792E-3,.7395E-4,0
BRO-5,2022-002CF,2026-05-11T04:05:16.194912,15.45438245,.0006559,97.3013,204.5685,104.8420,255.3556,0,U,51061,999,24053,.22895E-3,.10877E-3,0
LUDI TANCE 1-01A (L-SAR 01A),2022-007A,2026-05-11T04:57:07.327584,14.88411895,.0001615,97.8092,139.1533,91.2675,268.8727,0,U,51284,999,23297,.44961E-4,.362E-5,0
LUDI TANCE 1-01B (L-SAR 01B),2022-018A,2026-05-11T04:08:41.993664,14.88412807,.000158,97.8099,139.1156,91.9736,268.1662,0,U,51822,999,22820,.53557E-4,.442E-5,0
2022-019D,2022-019D,2026-05-11T04:18:59.615424,15.66023159,.0005486,97.3660,221.8037,244.5385,115.5307,0,U,51827,999,23390,.44992E-3,.4603E-3,0
2022-019J,2022-019J,2026-05-11T05:13:44.908032,15.20286716,.0008791,97.3445,194.9834,10.9001,349.2424,0,U,51832,999,23218,.63207E-4,.1306E-4,0
JILIN-1 GAOFEN 03D15,2022-019R,2026-05-11T04:30:59.692896,15.90753861,.0005528,97.3654,226.5478,234.5319,125.5439,0,U,51839,999,23422,.78072E-3,.240776E-2,.23354E-4
JILIN-1 GAOFEN 03D12,2022-019T,2026-05-11T00:56:36.699360,15.91699801,.0005751,97.3602,226.3268,221.5384,138.5454,0,U,51841,999,23420,.78629E-3,.254545E-2,.26169E-4
2022-023F,2022-023F,2026-05-11T04:29:18.976416,15.17804170,.0127722,63.4486,39.2626,343.9965,15.7127,0,U,51951,999,23209,.60207E-3,.14937E-3,0
CZ-4C R/B,2022-027B,2026-05-11T04:17:42.146592,13.65476897,.022927,63.3914,157.4461,22.7163,338.3825,0,U,52085,999,20698,.57263E-4,-.39E-6,0
MERIDIAN 10,2022-030A,2026-05-09T02:10:29.497152,2.00616584,.67733795,62.6773,144.9880,272.8849,17.7301,0,U,52145,999,3024,0,.246E-5,0
OMNI-L1,2022-033A,2026-05-11T04:42:14.863968,14.82609134,.000629,97.8394,211.0952,56.3296,303.8516,0,U,52157,999,22197,.15942E-3,.1231E-4,0
ENMAP,2022-033C,2026-05-11T04:38:15.381312,14.74956185,.0001462,97.9781,213.9676,86.3271,273.8105,0,U,52159,999,22120,.53531E-4,.31E-5,0
ARCSAT-1,2022-033E,2026-05-11T04:59:27.769056,15.52697945,.0004022,97.2734,222.9611,351.6147,8.5038,0,U,52161,999,22996,.1434E-3,.8748E-4,0
GLOBAL-18,2022-034B,2026-05-11T04:47:36.970080,15.44730648,.0005582,52.9815,73.1891,122.8914,237.2628,0,U,52196,999,23124,.28074E-3,.12928E-3,0
